[{"OBJECT_NAME":"STARLINK-4292","OBJECT_ID":"2022-083AV","EPOCH":"2026-03-09T13:21:56.750976","MEAN_MOTION":15.08846761,"ECCENTRICITY":0.0001279,"INCLINATION":53.2166,"RA_OF_ASC_NODE":174.7173,"ARG_OF_PERICENTER":84.8248,"MEAN_ANOMALY":275.289,"EPHEMERIS_TYPE":0,"CLASSIFICATION_TYPE":"U","NORAD_CAT_ID":53175,"ELEMENT_SET_NO":999,"REV_AT_EPOCH":20119,"BSTAR":-0.00013269,"MEAN_MOTION_DOT":-2.399e-5,"MEAN_MOTION_DDOT":0},{"OBJECT_NAME":"TITAN 3C TRANSTAGE DEB","OBJECT_ID":"1965-082PP","EPOCH":"2026-03-08T23:49:16.681152","MEAN_MOTION":15.10619215,"ECCENTRICITY":0.0014169,"INCLINATION":32.2612,"RA_OF_ASC_NODE":312.9247,"ARG_OF_PERICENTER":37.7873,"MEAN_ANOMALY":322.3781,"EPHEMERIS_TYPE":0,"CLASSIFICATION_TYPE":"U","NORAD_CAT_ID":3454,"ELEMENT_SET_NO":999,"REV_AT_EPOCH":23071,"BSTAR":0.00075143557,"MEAN_MOTION_DOT":0.00012814,"MEAN_MOTION_DDOT":0}]
